FENGYUN 1C DEB          
1 36652U 99025DXW 17345.50288663  .00000763  00000-0  46947-3 0  9994
2 36652  99.1225   7.9498 0062585 302.4453  57.0673 14.07761564488397
